{
    "CCSDS_OMM_VERS": "3.0",
    "COMMENT": "GENERATED VIA SPACE-TRACK.ORG API",
    "CREATION_DATE": "2025-05-23T14:56:28",
    "ORIGINATOR": "18 SPCS",
    "OBJECT_NAME": "COSMOS 2475 (GLONASS)",
    "OBJECT_ID": "2011-064C",
    "CENTER_NAME": "EARTH",
    "REF_FRAME": "TEME",
    "TIME_SYSTEM": "UTC",
    "MEAN_ELEMENT_THEORY": "SGP4",
    "EPOCH": "2025-05-23T13:43:01.158816",
    "MEAN_MOTION": "2.13101756",
    "ECCENTRICITY": "0.00260380",
    "INCLINATION": "65.0653",
    "RA_OF_ASC_NODE": "86.1408",
    "ARG_OF_PERICENTER": "255.6640",
    "MEAN_ANOMALY": "305.8086",
    "EPHEMERIS_TYPE": "0",
    "CLASSIFICATION_TYPE": "U",
    "NORAD_CAT_ID": "37869",
    "ELEMENT_SET_NO": "999",
    "REV_AT_EPOCH": "10545",
    "BSTAR": "0.00000000000000",
    "MEAN_MOTION_DOT": "0.00000000",
    "MEAN_MOTION_DDOT": "0.0000000000000",
    "SEMIMAJOR_AXIS": "25508.044",
    "PERIOD": "675.734",
    "APOAPSIS": "19196.327",
    "PERIAPSIS": "19063.491",
    "OBJECT_TYPE": "PAYLOAD",
    "RCS_SIZE": "LARGE",
    "COUNTRY_CODE": "CIS",
    "LAUNCH_DATE": "2011-11-04",
    "SITE": "TTMTR",
    "DECAY_DATE": null,
    "FILE": "4737079",
    "GP_ID": "288176562",
    "TLE_LINE0": "0 COSMOS 2475 (GLONASS)",
    "TLE_LINE1": "1 37869U 11064C   25143.57154119  .00000000  00000-0  00000+0 0  9992",
    "TLE_LINE2": "2 37869  65.0653  86.1408 0026038 255.6640 305.8086  2.13101756105455"
}